[{"OBJECT_NAME":"STARLINK-35834","OBJECT_ID":"2025-268P","EPOCH":"2026-03-09T03:50:22.087104","MEAN_MOTION":15.27613968,"ECCENTRICITY":2.792e-5,"INCLINATION":42.9969,"RA_OF_ASC_NODE":350.5009,"ARG_OF_PERICENTER":237.3828,"MEAN_ANOMALY":122.6996,"EPHEMERIS_TYPE":0,"CLASSIFICATION_TYPE":"U","NORAD_CAT_ID":66570,"ELEMENT_SET_NO":999,"REV_AT_EPOCH":1787,"BSTAR":0.0011225519,"MEAN_MOTION_DOT":0.00030789,"MEAN_MOTION_DDOT":0},{"OBJECT_NAME":"CZ-2C R\/B","OBJECT_ID":"2024-218A","EPOCH":"2026-03-09T22:16:31.791072","MEAN_MOTION":15.22960743,"ECCENTRICITY":0.00453409,"INCLINATION":97.5416,"RA_OF_ASC_NODE":83.973,"ARG_OF_PERICENTER":359.5317,"MEAN_ANOMALY":0.5869,"EPHEMERIS_TYPE":0,"CLASSIFICATION_TYPE":"U","NORAD_CAT_ID":62078,"ELEMENT_SET_NO":999,"REV_AT_EPOCH":7134,"BSTAR":0.00039378379,"MEAN_MOTION_DOT":9.445e-5,"MEAN_MOTION_DDOT":0}]
